[{"OBJECT_NAME":"STARLINK-5808","OBJECT_ID":"2023-083BD","EPOCH":"2026-03-09T22:00:01.999584","MEAN_MOTION":15.14004269,"ECCENTRICITY":0.00016373,"INCLINATION":42.9994,"RA_OF_ASC_NODE":337.5456,"ARG_OF_PERICENTER":220.5285,"MEAN_ANOMALY":42.6839,"EPHEMERIS_TYPE":0,"CLASSIFICATION_TYPE":"U","NORAD_CAT_ID":56927,"ELEMENT_SET_NO":999,"REV_AT_EPOCH":563,"BSTAR":0.0028761116,"MEAN_MOTION_DOT":0.00053329,"MEAN_MOTION_DDOT":0},{"OBJECT_NAME":"SHIJIAN-30C (SJ-30C)","OBJECT_ID":"2025-266C","EPOCH":"2026-03-09T22:18:08.951328","MEAN_MOTION":15.15375128,"ECCENTRICITY":0.00100456,"INCLINATION":51.7965,"RA_OF_ASC_NODE":284.3719,"ARG_OF_PERICENTER":284.8645,"MEAN_ANOMALY":75.1218,"EPHEMERIS_TYPE":0,"CLASSIFICATION_TYPE":"U","NORAD_CAT_ID":66547,"ELEMENT_SET_NO":999,"REV_AT_EPOCH":1680,"BSTAR":0.00059078911,"MEAN_MOTION_DOT":0.00011009,"MEAN_MOTION_DDOT":0}]
